[{"OBJECT_NAME":"STARLINK-35097","OBJECT_ID":"2025-191Q","EPOCH":"2026-03-09T15:41:15.519840","MEAN_MOTION":15.05637394,"ECCENTRICITY":0.0002529,"INCLINATION":97.6026,"RA_OF_ASC_NODE":301.4832,"ARG_OF_PERICENTER":101.0669,"MEAN_ANOMALY":259.0843,"EPHEMERIS_TYPE":0,"CLASSIFICATION_TYPE":"U","NORAD_CAT_ID":65393,"ELEMENT_SET_NO":999,"REV_AT_EPOCH":2881,"BSTAR":-0.00029898,"MEAN_MOTION_DOT":-4.371e-5,"MEAN_MOTION_DDOT":0},{"OBJECT_NAME":"OBJECT H","OBJECT_ID":"2025-292H","EPOCH":"2026-03-09T22:24:53.558208","MEAN_MOTION":15.06373042,"ECCENTRICITY":0.00142604,"INCLINATION":97.6442,"RA_OF_ASC_NODE":145.7846,"ARG_OF_PERICENTER":348.9217,"MEAN_ANOMALY":11.1694,"EPHEMERIS_TYPE":0,"CLASSIFICATION_TYPE":"U","NORAD_CAT_ID":67000,"ELEMENT_SET_NO":999,"REV_AT_EPOCH":1338,"BSTAR":0.0005462937,"MEAN_MOTION_DOT":8.001e-5,"MEAN_MOTION_DDOT":0}]
